STARLINK-36418          
1 67422U 26005U   26032.50002314  .00106021  00000+0  17944-2 0  9998
2 67422  43.0003  85.8573 0000923 305.0193 337.3490 15.50488744  4328
STARLINK-36465          
1 67423U 26005V   26032.50002314  .00094125  00000+0  15958-2 0  9993
2 67423  43.0004  85.8529 0001290 293.1703 351.1151 15.50495408  4113
STARLINK-36362          
1 67424U 26005W   26032.50002314 -.00118000  00000+0 -20330-2 0  9995
2 67424  43.0004  85.8469 0001294 289.5166 356.6389 15.50620124  4368
STARLINK-36447          
1 67425U 26005X   26032.50002314  .00104880  00000+0  17752-2 0  9999
2 67425  43.0002  85.8425 0001017 303.5389 344.5800 15.50491968  4362
STARLINK-36146          
1 67426U 26005Y   26032.50002314 -.00124271  00000+0 -21428-2 0  9993
2 67426  43.0004  85.8370 0001240 287.4056   2.5844 15.50623506  4323
STARLINK-36459          
1 67427U 26005Z   26032.50002314  .00097728  00000+0  16558-2 0  9996
2 67427  43.0002  85.8326 0001287 284.3662   7.5823 15.50496033  4294
STARLINK-36464          
1 67428U 26005AA  26032.50002314  .00108416  00000+0  18338-2 0  9992
2 67428  43.0005  85.8232 0001207 288.4695   7.3137 15.50495535  4367
STARLINK-36513          
1 67429U 26005AB  26032.50002314  .00081430  00000+0  13832-2 0  9993
2 67429  43.0002  85.8178 0001055 303.1086 354.5939 15.50502371  4368
STARLINK-36515          
1 67430U 26005AC  26032.50002314  .00107724  00000+0  18223-2 0  9999
2 67430  43.0004  85.8280 0001269 287.4609   6.4066 15.50494938  4293
STARLINK-36443          
1 67431U 26005AD  26032.50002314  .00107934  00000+0  18263-2 0  9997
2 67431  43.0003  85.8125 0000839 315.5181 344.1037 15.50487408  4329
STARLINK-36460          
1 67432U 26005AE  26032.50002314 -.00118190  00000+0 -20362-2 0  9999
2 67432  43.0004  85.8070 0001024 287.6342  13.8544 15.50622734  4365
YAOGAN-50 01            
1 67433U 26006A   26032.45405594  .00000357  00000+0  15217-3 0  9999
2 67433 142.0316 279.8401 0000659 267.2011  92.8632 13.83253054  2637
CZ-6A R/B               
1 67434U 26006B   26032.42850081  .00001422  00000+0  15936-3 0  9994
2 67434 142.0437 291.1814 0203255 219.9733 138.5870 14.62289988  2768
HULIANWANG DIGUI-137    
1 67435U 26007A   26031.81076834  .00000023  00000+0  15171-3 0  9991
2 67435  50.0077 222.2225 0001218 163.0440 197.0497 13.82942218  2530
HULIANWANG DIGUI-138    
1 67436U 26007B   26032.39317015  .00000007  00000+0  13882-3 0  9994
2 67436  50.0047 219.9672 0000166 155.2023 204.8880 13.82260265  2615
HULIANWANG DIGUI-139    
1 67437U 26007C   26031.59563141  .00000054  00000+0  17934-3 0  9993
2 67437  50.0009 223.0728 0000639 280.3182  79.7641 13.83023993  2501
HULIANWANG DIGUI-140    
1 67438U 26007D   26031.60036235  .00000045  00000+0  17234-3 0  9998
2 67438  50.0071 223.0888 0001699   9.2603 350.8323 13.82716272  2509
HULIANWANG DIGUI-141    
1 67439U 26007E   26031.59132808  .00000028  00000+0  15542-3 0  9991
2 67439  49.9978 223.0465 0000848 110.8917 249.2070 13.83477078  2505
HULIANWANG DIGUI-142    
1 67440U 26007F   26031.87774789 -.00000125  00000+0  17140-4 0  9990
2 67440  50.0175 221.9246 0001047  31.4486 328.6472 13.83208557  2540
HULIANWANG DIGUI-143    
1 67441U 26007G   26031.58639919  .00000026  00000+0  15216-3 0  9994
2 67441  50.0093 223.0431 0001001 325.2229  34.8601 13.83872752  2508
HULIANWANG DIGUI-144    
1 67442U 26007H   26031.58418974  .00000011  00000+0  13836-3 0  9991
2 67442  50.0080 223.0330 0005172 307.2161  52.8262 13.84034518  2505
HULIANWANG DIGUI-145    
1 67443U 26007J   26031.36474851  .00000038  00000+0  16076-3 0  9992
2 67443  50.0089 223.8640 0000910 227.8160 132.2659 13.84763079  2478
CZ-8A R/B               
1 67444U 26007K   26031.99857870 -.00000131  00000+0  12562-4 0  9990
2 67444  50.0084 218.5235 0092171 146.0178 214.6680 14.13550591  2594
STARLINK-36542          
1 67445U 26008A   26032.50002314 -.00190861  00000+0 -12647-2 0  9998
2 67445  43.0003  53.1290 0001189 286.7789 200.8330 15.75093249  3974
STARLINK-36539          
1 67446U 26008B   26032.50002314  .00094765  00000+0  61447-3 0  9996
2 67446  43.0003  53.1242 0001569 285.6277 203.9219 15.74988250  3978
STARLINK-36440          
1 67447U 26008C   26032.50002314  .00046347  00000+0  30345-3 0  9993
2 67447  43.0002  53.1189 0001475 266.8856 224.5761 15.75017557  3973
STARLINK-36423          
1 67448U 26008D   26032.50002314 -.02041134  00000+0 -15763-1 0  9992
2 67448  43.0002  53.1150 0001349 280.2354 212.7289 15.74029806  3978
STARLINK-36519          
1 67449U 26008E   26032.50002314  .00023953  00000+0  15863-3 0  9991
2 67449  43.0001  53.1087 0001413 266.1214 229.1620 15.75033961  3976
STARLINK-36525          
1 67450U 26008F   26032.50002314 -.00449996  00000+0 -30642-2 0  9995
2 67450  43.0003  53.1038 0001534 271.7718 225.3959 15.75194382  3979
STARLINK-36511          
1 67451U 26008G   26032.50002314 -.02038272  00000+0 -15557-1 0  9996
2 67451  43.0003  53.0996 0001359 284.3738 214.5190 15.74293562  3975
STARLINK-36524          
1 67452U 26008H   26032.50002314  .00090800  00000+0  58889-3 0  9995
2 67452  43.0001  53.0941 0001602 275.8257 225.2164 15.74998948  3976
STARLINK-36518          
1 67453U 26008J   26032.50002314  .00039483  00000+0  25916-3 0  9991
2 67453  42.9993  52.7244 0001535 285.8597 359.8526 15.75018922  3994
STARLINK-36517          
1 67454U 26008K   26032.50002314 -.02037804  00000+0 -16643-1 0  9996
2 67454  43.0000  53.0942 0001080 278.5290 222.3202 15.72741097  3997
STARLINK-36516          
1 67455U 26008L   26032.50002314 -.01925896  00000+0 -14311-1 0  9993
2 67455  43.0001  53.0755 0001097 270.6000 238.0848 15.75256778  3979
STARLINK-36493          
1 67456U 26008M   26032.50002314 -.00956157  00000+0 -68712-2 0  9992
2 67456  43.0000  53.0848 0001223 275.8748 228.9353 15.75352804  3975
STARLINK-36529          
1 67457U 26008N   26032.50002314  .00029806  00000+0  19652-3 0  9993
2 67457  43.0002  53.0793 0001500 271.5813 235.2016 15.75032005  3976
STARLINK-36528          
1 67458U 26008P   26032.50002314 -.00000235  00000+0  15712-5 0  9995
2 67458  43.0001  53.0699 0000822 261.6318 248.9776 15.75043556  3996
STARLINK-36546          
1 67459U 26008Q   26032.50002314 -.00003062  00000+0 -16827-4 0  9995
2 67459  43.0003  53.0645 0001647 282.0702 230.4610 15.75045329  3971
STARLINK-36523          
1 67460U 26008R   26032.50002314  .00016270  00000+0  10885-3 0  9997
2 67460  43.0001  53.0598 0001646 273.2595 241.1945 15.75031915  3997
STARLINK-36522          
1 67461U 26008S   26032.50002314 -.01678493  00000+0 -12130-1 0  9995
2 67461  43.0003  53.0553 0001037 278.5684 237.7489 15.75439429  3976
STARLINK-36504          
1 67462U 26008T   26032.50002314  .00004306  00000+0  31128-4 0  9990
2 67462  43.0002  53.0501 0001428 282.7081 235.5761 15.75038098  3999
STARLINK-36505          
1 67463U 26008U   26032.50002314  .00008998  00000+0  61621-4 0  9993
2 67463  43.0001  53.0460 0001539 280.3301 239.8699 15.75038036  3972
STARLINK-36421          
1 67464U 26008V   26032.50002314 -.01800028  00000+0 -13145-1 0  9996
2 67464  43.0002  53.0412 0001273 274.1474 247.9274 15.75416266  3972
STARLINK-36437          
1 67465U 26008W   26032.50002314 -.00008988  00000+0 -55464-4 0  9994
2 67465  43.0002  53.0355 0001555 271.2133 252.8249 15.75039358  3972
STARLINK-36520          
1 67466U 26008X   26032.50002314  .00016683  00000+0  11158-3 0  9995
2 67466  42.9998  53.0307 0001642 270.3440 255.6169 15.75020456  3971
STARLINK-36425          
1 67467U 26008Y   26032.50002314 -.02039070  00000+0 -17272-1 0  9996
2 67467  42.9996  53.0356 0000969 279.7002 244.2426 15.71897553  3978
STARLINK-36414          
1 67468U 26008Z   26032.50002314  .00008248  00000+0  56734-4 0  9995
2 67468  43.0004  52.7538 0001767 279.1995 356.9140 15.75044505  3970
STARLINK-36441          
1 67469U 26008AA  26032.50002314 -.02014645  00000+0 -14866-1 0  9995
2 67469  43.0002  52.7434 0001704 258.7805  21.1758 15.75020795  3979
STARLINK-36454          
1 67470U 26008AB  26032.50002314 -.00136918  00000+0 -90134-3 0  9997
2 67470  43.0003  52.7378 0001613 287.9795 353.8919 15.75073539  3978
STARLINK-36334          
1 67471U 26008AC  26032.50002314 -.00055060  00000+0 -35714-3 0  9999
2 67471  43.0004  52.7484 0000790 274.2440   3.7890 15.75074159  3977
STARLINK-36269          
1 67472U 26008AD  26032.50002314  .00091148  00000+0  59120-3 0  9992
2 67472  43.0001  52.7323 0001289 277.7263   6.0695 15.74995699  3993
STARLINK-36408          
1 67473U 26008AE  26032.50002314 -.01607613  00000+0 -11548-1 0  9996
2 67473  43.0001  52.7231 0001502 264.2602  23.3110 15.75447282  3993
ALSAT-3A                
1 67474U 26009A   26032.42198173  .00006620  00000+0  28137-3 0  9990
2 67474  97.4699 107.1169 0011871 195.5489 164.5385 15.23320469  2603
CZ-2C R/B               
1 67475U 26009B   26032.38884404  .00003497  00000+0  23668-3 0  9998
2 67475  97.1787 105.6010 0099890 163.0607 197.3995 15.03064490  2626
TIANQI-37               
1 67476U 26010A   26032.28040615  .00000463  00000+0  31428-3 0  9991
2 67476  44.9835 328.5358 0013142  34.4104 325.7583 14.13520787  2335
TIANQI-38               
1 67477U 26010B   26032.27785046  .00000524  00000+0  34403-3 0  9999
2 67477  44.9797 328.5158 0011912  39.6294 320.5413 14.13897809  2338
TIANQI-39               
1 67478U 26010C   26030.37016323  .00000342  00000+0  25056-3 0  9996
2 67478  44.9851 337.2202 0014472  36.2785 323.9032 14.13517056  2066
TIANQI-40               
1 67479U 26010D   26028.88577045  .00000320  00000+0  23705-3 0  9998
2 67479  44.9851 343.9821 0013061  21.9564 338.1832 14.13986611  1856
SZ-20 MODULE            
1 67481U 25082C   26032.46768222  .00018784  00000+0  21112-3 0  9990
2 67481  41.4790  68.1590 0006239  67.3451 292.8048 15.62137554271954
